KUIPER-00061            
1 64521U 25134X   25196.45433558  .00020434  00000+0  59692-3 0  9999
2 64521  51.8736 224.9268 0005052 186.1731 173.9193 15.35267930  4617
KUIPER-00062            
1 64522U 25134Y   25196.51471180  .00019608  00000+0  56737-3 0  9998
2 64522  51.8741 224.5834 0004532 173.8657 186.2385 15.35596963  4634
KUIPER-00063            
1 64523U 25134Z   25196.44235324  .00021207  00000+0  60073-3 0  9995
2 64523  51.8739 224.8498 0002378 154.3184 205.7921 15.36216442  4620
KUIPER-00064            
1 64524U 25134AA  25196.49968271  .00027939  00000+0  77378-3 0  9999
2 64524  51.8763 224.4831 0001390 104.1235 255.9906 15.36758823  4475
KUIPER-00065            
1 64525U 25134AB  25196.33515872  .00009713  00000+0  29648-3 0  9995
2 64525  51.8700 225.6201 0008333 188.5670 171.5174 15.34542234  4592
KUIPER-00066            
1 64526U 25134AC  25196.50325402  .00022380  00000+0  62796-3 0  9999
2 64526  51.8753 224.5086 0001279 117.2853 242.8264 15.36481151  4633
